Orbit 1
Satellite Number: 99999
Line 1: 1 99999U 20042A   26027.13434208  .00000000  00000-0  10000-4 0  9990
Line 2: 2 99999  97.6020 244.5384 0002214  88.6496 271.9396 15.06633386  1000
Keplerian Elements:
  Semi-major axis (a): 6921.623315 km
  Eccentricity (e): 0.000221
  Inclination (i): 97.602000 deg
  Argument of Perigee (ω): 88.649600 deg
  RAAN (Ω): 244.538400 deg
--------------------------------------------------
Orbit 2
Satellite Number: 64846
Line 1: 1 64846U 25152E   26027.11735808  .00008470  00000-0  59037-3 0  9999
Line 2: 2 64846  97.6044 244.5494 0002198 115.1294 245.0161 15.05657713 29162
Keplerian Elements:
  Semi-major axis (a): 6924.615859 km
  Eccentricity (e): 0.000220
  Inclination (i): 97.604400 deg
  Argument of Perigee (ω): 115.129400 deg
  RAAN (Ω): 244.549400 deg
--------------------------------------------------
Orbit 3
Satellite Number: 64843
Line 1: 1 64843U 25152B   26027.13950928  .00007369  00000-0  51425-3 0  9999
Line 2: 2 64843  97.6021 244.5341 0001766  78.6981 281.4445 15.05659590 29165
Keplerian Elements:
  Semi-major axis (a): 6924.609999 km
  Eccentricity (e): 0.000177
  Inclination (i): 97.602100 deg
  Argument of Perigee (ω): 78.698100 deg
  RAAN (Ω): 244.534100 deg
--------------------------------------------------
Orbit 4
Satellite Number: 64852
Line 1: 1 64852U 25152L   26027.12843634  .00003413  00000-0  24062-3 0  9996
Line 2: 2 64852  97.6027 244.5439 0002251  83.0581 277.0902 15.05651348 29167
Keplerian Elements:
  Semi-major axis (a): 6924.635318 km
  Eccentricity (e): 0.000225
  Inclination (i): 97.602700 deg
  Argument of Perigee (ω): 83.058100 deg
  RAAN (Ω): 244.543900 deg
--------------------------------------------------
